#dP2022 12 10 12  0  0.00000000      96 __u+U ITR00 EXT  IAC
## 2239 561600.00000000   900.00000000 59923 0.5000000000000
+  116   C07C08C09C10C11C12C13C14C16C19C20C21C22C23C24C25C26
+        C27C28C29C30C32C33C34C35C36C37C38C39C40C41C42C43C44
+        C45C46E01E02E03E04E05E07E08E09E10E12E13E14E15E18E19
+        E21E24E25E26E27E30E31E33E34E36G01G02G03G04G05G06G07
+        G08G09G10G11G12G13G14G15G16G17G18G19G20G21G22G23G24
+        G25G26G27G29G30G31G32J02J03J04R01R02R03R04R05R07R08
+        R09R11R12R13R14R15R17R18R19R20R21R22R24R25  0  0  0
++        10 10  8 10  8 10  6  9 10  9  7  9  8  9  8  7  9
++         7  8  8  9  7  9  7  8  8  9  9  8 10  8  9  9  9
++         7  8  8  7  7  8  7  6  7  6 11  6  7  6  7  9  7
++         8  6  6  6  8  8  8  7  6  6  7  8  6  8  8  7  7
++         7  7  6  7  8  7  9  8  7  8  7  8  7  8  7  7  7
++         7  8  7  7  8  8  7  8  8  9  7  8  7  7  7  7  8
++         9  7  7  7  8  8  7  8  7  9  8  8  7  9  0  0  0
%c M  cc GPS ccc cccc cccc cccc cccc ccccc ccccc ccccc ccccc
%c cc cc ccc ccc cccc cccc cccc cccc ccccc ccccc ccccc ccccc
%f  0.0000000  0.000000000  0.00000000000  0.000000000000000
%f  0.0000000  0.000000000  0.00000000000  0.000000000000000
%i    0    0    0    0      0      0      0      0         0
%i    0    0    0    0      0      0      0      0         0
/* IAC                                ULTRA-RAPID PREDICTION
/* S/V CLOCKS ARE ALIGNED TO GNSS TIME                      
/* G:C1WC2W R:C1PC2P E:C1XC5X C:C2IC6I J:C1CC2S             
/* PCV:IGS20_2233 OL/AL:FES2004  NONE     YN ORB:CoN CLK:CoN
*  2022 12 11  2 30  0.00000000
PC07 -13335.574358  27270.046072 -29278.715794     92.504143
PC08 -15009.932099  38919.924463   5471.722373    521.593582
PC09   5498.535438  37404.314269  19571.246352   -785.790823
PC10  -5731.849264  27544.560218 -31183.386236     53.640710
PC11  10454.078872  23586.191246 -10526.888752   -242.855239
PC12  -5315.274702  16251.070318 -22005.056409    340.388378
PC13  -9040.187247  39193.925149  12291.376766    155.141099
PC14   4610.072656  15165.744116  22978.279950    254.586523
PC16  -3784.196745  30963.733137  28681.569167    103.585289
PC19 -15126.605395 -11255.703790 -20557.595875   -904.868490
PC20   4533.134487 -16345.756901 -22148.089718    809.744791
PC21 -22979.544479  11910.281638  10461.871803   -927.880056
PC22 -27011.602330    518.491605  -7033.105495   -746.619704
PC23  16654.601743   1081.495896 -22367.070497   -872.096392
PC24  -7042.662588  26843.887124  -2769.189264   -691.038746
PC25   8126.637480  19026.585316 -18726.303845     37.715912
PC26 -15611.165870  19317.311591  12669.163132    -48.143424
PC27  12834.311424  -9445.782836  22893.682990     64.416140
PC28  21408.837796   7759.078897  16136.415643     45.866900
PC29 -18344.034543 -20996.041515   1183.918884     52.116552
PC30  -3347.214783 -21505.332336  17452.590568      1.184855
PC32  22944.527495 -12036.727590 -10351.705658   -686.948839
PC33  15071.041595  11261.587825  20606.930461   -895.990837
PC34   4420.053816  21968.133583 -16651.019938     58.427078
PC35 -21998.094706  -8449.514996 -14927.157028    127.614110
PC36  -7232.046103 -19748.233404  18366.733905   -776.607287
PC37  16468.033033 -17877.497687 -13727.314653   -886.358141
PC38 -18282.816008  37831.738907  -2126.003054     44.124990
PC39  -5794.362417  28160.871359  30926.483399     -1.044152
PC40 -20599.193923  20769.443842 -30454.464890     -9.936746
PC41  26858.428986   -170.827520   7627.529283   -367.377311
PC42  -5926.338230  16469.259489  21776.180668   -828.027104
PC43  17861.474235  21368.395390  -1942.867422     29.489150
PC44 -12720.808215   9860.125403 -22802.693335    141.238446
PC45 -16631.010633   -653.353236  22391.262860    -33.188378
PC46   5848.440735 -26939.118197   4488.226201    -18.763491
PE01 -24922.513772   9800.761897  12596.252046   -574.343169
PE02  24965.048768 -10059.425149 -12348.072977      7.835981
PE03  26649.153373   -214.563785 -12885.750459   -628.587138
PE04 -12112.685410  13281.207318  23515.261212    -11.488267
PE05  25848.313940  13298.957657   5590.130285   -116.256131
PE07  -9968.803698 -18850.949230 -20532.888807     -6.190397
PE08  12079.143676 -13161.088737 -23607.886038     -0.690414
PE09   9824.858838  18707.070404  20720.289216   -759.689220
PE10   -843.012667  28015.143153  -9505.342307   -496.935707
PE12  -7203.760363  22816.759227 -17429.418850   -325.525914
PE13  -5575.110763 -29070.203445    -52.724055    430.408711
PE14 -14254.652134  15094.144276 -23896.405438     81.141503
PE15   7302.597619 -22579.752303  17703.395112    701.748067
PE18   -953.586927 -17623.010932  18107.054006   -642.464413
PE19 -27539.006283  -1929.860589  10668.242395  -3775.103998
PE21 -17061.233845  -6407.599799  23321.733651   -499.635677
PE24  -2025.033987  20655.067060 -21107.180216   -995.036740
PE25  16848.191687   6663.128795 -23405.089864   -594.650506
PE26 -15358.378011 -17683.150144 -18093.596080  -1884.978449
PE27   1099.384754 -20263.310536  21557.501648   -460.260745
PE30  19002.962442 -21783.605840   6411.428719  -1068.188786
PE31 -18422.706166  22039.506448  -7114.178488   -510.349509
PE33 -15773.673253   2813.994294 -24878.109033   -455.531110
PE34  15736.818793  -3053.740071  24884.414632    -18.997618
PE36  15052.696077  18446.386831  17597.788507   -473.567651
PG01  13381.442681  -7486.641088  21321.383728    239.428065
PG02 -11792.821938  11904.634503 -20027.220583   -633.652683
PG03  22961.183517 -11608.393253   6243.419427   -375.236059
PG04  20869.810745  -2569.008000 -16289.179306    -70.819055
PG05 -20132.280988    554.264161 -17546.169612   -107.603340
PG06  -6031.573450 -25277.471857  -5201.935196    537.603687
PG07   7199.776109 -21389.909044 -13174.704793    276.112541
PG08  25337.334828   5341.322832   6696.844290    -98.043031
PG09  11016.905720 -11699.146663 -21234.932899   -255.390914
PG10  -3948.491895  18543.792172  18628.097577    -15.571903
PG11 -12028.053423 -17586.606167 -15872.443922    -54.718803
PG12 -23739.597033   9437.940214   6794.869862   -314.487964
PG13 -23027.736116 -13396.999999    919.408064    439.840653
PG14   6780.779705 -19257.155020  16932.197114    -70.127951
PG15 -25723.925242  -2518.274926   6268.106042     -5.124484
PG16  17653.427698   5125.879074 -19623.757122   -526.294043
PG17  -2585.162987 -17028.096142  20638.280825    684.956643
PG18  -5882.753607  23053.756202 -11653.425258    -54.424802
PG19 -14138.813696 -18306.436006  13059.477110    248.891452
PG20 -11703.033728 -10209.303963 -21519.092748    464.384159
PG21  15963.080861   2246.863995  21814.231879    154.131301
PG22  16237.861351  17961.978725  11541.977803    382.222484
PG23 -14156.464838  19901.894368  10259.835865     -0.104628
PG24 -15293.902948   3248.799449  21124.131940     21.277031
PG25 -20029.284189  17083.572189  -2350.296216    400.895699
PG26   8155.763960  13668.883240 -21338.403072    238.110492
PG27  22963.848721  13183.381152  -4231.045729    156.394616
PG29 -13719.803354   8740.411467 -21053.520616   -573.171465
PG30   -698.028729 -26282.746250  -2512.976262   -535.593333
PG31   7086.458096  24409.828362  -6989.015505   -202.887104
PG32   6870.024264  17476.064257  19014.565101   -325.441792
PJ02 -35592.197026  22550.711190   2078.763941     -0.290884
PJ03 -19300.977098  23952.254683 -24218.062802     -6.405037
PJ04 -28269.303169  30419.000094  13964.914878    114.881220
PR01 -10221.002133  10424.611318  20915.014450     19.341218
PR02  10494.166678   9849.077358  21116.690386    -23.407703
PR03  23799.510090   3699.025869   8536.429446     68.859279
PR04  23670.772775  -4175.013385  -8544.557866    168.135407
PR05  10714.570217  -9825.743041 -20962.105342    104.333183
PR07 -24049.366565  -3326.694861  -7700.138855     45.854035
PR08 -23527.854466   4456.934509   8790.078538    -68.494594
PR09   -830.220988 -17792.277233  18241.387704     92.347596
PR11 -15438.265630  13576.196143  15116.141493     15.666533
PR12 -10968.831014  22830.536364  -2905.346254     23.535468
PR13   -648.627395  18764.534183 -17281.057304    -29.822067
PR14  11222.809864   2463.019120 -22764.185779     24.085299
PR15  15661.904544 -14240.479991 -14217.960264     92.414704
PR17  15803.744226  14153.589845  14146.661213    585.856869
PR18  11208.313749  -1175.036150  22910.236495     56.203039
PR19   2148.041834 -15116.147405  20443.008496   -214.109777
PR20 -10489.708813 -22937.027428   3693.833293    -83.731995
PR21 -15602.579278 -13028.182529 -15422.977302   -356.530717
PR22 -11204.741075   1784.791300 -22813.257744     19.433021
PR24  11464.310964  22583.523103  -2938.842815    131.965682
PR25 -15262.536040 -15194.531505 -13677.491247     48.571454
EOF
